CCSDS_OMM_VERS = 2.0
CREATION_DATE  = 
ORIGINATOR     = 

OBJECT_NAME    = STARLINK-35661
OBJECT_ID      = 2025-257H
CENTER_NAME    = EARTH
REF_FRAME      = TEME
TIME_SYSTEM    = UTC
MEAN_ELEMENT_THEORY = SGP/SGP4

EPOCH          = 2025-12-03T12:00:02.998944
MEAN_MOTION    = 15.42583289
ECCENTRICITY   = .0000648
INCLINATION    = 53.1595
RA_OF_ASC_NODE = 308.0405
ARG_OF_PERICENTER = 72.0651
MEAN_ANOMALY   = 43.9259

EPHEMERIS_TYPE = 0
CLASSIFICATION_TYPE = U
NORAD_CAT_ID   = 66387
ELEMENT_SET_NO = 999
REV_AT_EPOCH   = 501
BSTAR          = -.43116E-1
MEAN_MOTION_DOT = -.1696499E-1
MEAN_MOTION_DDOT = 0

CCSDS_OMM_VERS = 2.0
CREATION_DATE  = 
ORIGINATOR     = 

OBJECT_NAME    = STARLINK-35647
OBJECT_ID      = 2025-257J
CENTER_NAME    = EARTH
REF_FRAME      = TEME
TIME_SYSTEM    = UTC
MEAN_ELEMENT_THEORY = SGP/SGP4

EPOCH          = 2025-12-03T12:00:02.998944
MEAN_MOTION    = 15.45540877
ECCENTRICITY   = .0001277
INCLINATION    = 53.1595
RA_OF_ASC_NODE = 308.0130
ARG_OF_PERICENTER = 72.1402
MEAN_ANOMALY   = 57.5407

EPHEMERIS_TYPE = 0
CLASSIFICATION_TYPE = U
NORAD_CAT_ID   = 66388
ELEMENT_SET_NO = 999
REV_AT_EPOCH   = 501
BSTAR          = -.47006E-1
MEAN_MOTION_DOT = -.2041329E-1
MEAN_MOTION_DDOT = 0

CCSDS_OMM_VERS = 2.0
CREATION_DATE  = 
ORIGINATOR     = 

OBJECT_NAME    = STARLINK-35694
OBJECT_ID      = 2025-257K
CENTER_NAME    = EARTH
REF_FRAME      = TEME
TIME_SYSTEM    = UTC
MEAN_ELEMENT_THEORY = SGP/SGP4

EPOCH          = 2025-12-03T09:51:45.959040
MEAN_MOTION    = 15.49244836
ECCENTRICITY   = .0001836
INCLINATION    = 53.1590
RA_OF_ASC_NODE = 308.4226
ARG_OF_PERICENTER = 114.7525
MEAN_ANOMALY   = 245.3675

EPHEMERIS_TYPE = 0
CLASSIFICATION_TYPE = U
NORAD_CAT_ID   = 66389
ELEMENT_SET_NO = 999
REV_AT_EPOCH   = 493
BSTAR          = .34878E-3
MEAN_MOTION_DOT = .18953E-3
MEAN_MOTION_DDOT = 0

CCSDS_OMM_VERS = 2.0
CREATION_DATE  = 
ORIGINATOR     = 

OBJECT_NAME    = STARLINK-35665
OBJECT_ID      = 2025-257L
CENTER_NAME    = EARTH
REF_FRAME      = TEME
TIME_SYSTEM    = UTC
MEAN_ELEMENT_THEORY = SGP/SGP4

EPOCH          = 2025-12-03T09:42:52.043328
MEAN_MOTION    = 15.49342524
ECCENTRICITY   = .0001361
INCLINATION    = 53.1588
RA_OF_ASC_NODE = 308.3801
ARG_OF_PERICENTER = 95.3157
MEAN_ANOMALY   = 264.8007

EPHEMERIS_TYPE = 0
CLASSIFICATION_TYPE = U
NORAD_CAT_ID   = 66390
ELEMENT_SET_NO = 999
REV_AT_EPOCH   = 503
BSTAR          = .1554E-2
MEAN_MOTION_DOT = .87051E-3
MEAN_MOTION_DDOT = 0

CCSDS_OMM_VERS = 2.0
CREATION_DATE  = 
ORIGINATOR     = 

OBJECT_NAME    = STARLINK-35656
OBJECT_ID      = 2025-257M
CENTER_NAME    = EARTH
REF_FRAME      = TEME
TIME_SYSTEM    = UTC
MEAN_ELEMENT_THEORY = SGP/SGP4

EPOCH          = 2025-12-03T12:00:02.998944
MEAN_MOTION    = 15.39582074
ECCENTRICITY   = .0001522
INCLINATION    = 53.1593
RA_OF_ASC_NODE = 307.9196
ARG_OF_PERICENTER = 65.7595
MEAN_ANOMALY   = 103.6952

EPHEMERIS_TYPE = 0
CLASSIFICATION_TYPE = U
NORAD_CAT_ID   = 66391
ELEMENT_SET_NO = 999
REV_AT_EPOCH   = 511
BSTAR          = .7703E-3
MEAN_MOTION_DOT = .30497E-3
MEAN_MOTION_DDOT = 0

CCSDS_OMM_VERS = 2.0
CREATION_DATE  = 
ORIGINATOR     = 

OBJECT_NAME    = STARLINK-35671
OBJECT_ID      = 2025-257N
CENTER_NAME    = EARTH
REF_FRAME      = TEME
TIME_SYSTEM    = UTC
MEAN_ELEMENT_THEORY = SGP/SGP4

EPOCH          = 2025-12-03T12:00:02.998944
MEAN_MOTION    = 15.45035717
ECCENTRICITY   = .0001329
INCLINATION    = 53.1593
RA_OF_ASC_NODE = 308.0034
ARG_OF_PERICENTER = 82.2543
MEAN_ANOMALY   = 51.5514

EPHEMERIS_TYPE = 0
CLASSIFICATION_TYPE = U
NORAD_CAT_ID   = 66392
ELEMENT_SET_NO = 999
REV_AT_EPOCH   = 501
BSTAR          = -.48093E-1
MEAN_MOTION_DOT = -.2051228E-1
MEAN_MOTION_DDOT = 0

CCSDS_OMM_VERS = 2.0
CREATION_DATE  = 
ORIGINATOR     = 

OBJECT_NAME    = STARLINK-35652
OBJECT_ID      = 2025-257P
CENTER_NAME    = EARTH
REF_FRAME      = TEME
TIME_SYSTEM    = UTC
MEAN_ELEMENT_THEORY = SGP/SGP4

EPOCH          = 2025-12-03T08:18:23.186016
MEAN_MOTION    = 15.49329559
ECCENTRICITY   = .0001485
INCLINATION    = 53.1589
RA_OF_ASC_NODE = 308.7286
ARG_OF_PERICENTER = 104.9265
MEAN_ANOMALY   = 255.1908

EPHEMERIS_TYPE = 0
CLASSIFICATION_TYPE = U
NORAD_CAT_ID   = 66393
ELEMENT_SET_NO = 999
REV_AT_EPOCH   = 492
BSTAR          = .11247E-2
MEAN_MOTION_DOT = .62649E-3
MEAN_MOTION_DDOT = 0

CCSDS_OMM_VERS = 2.0
CREATION_DATE  = 
ORIGINATOR     = 

OBJECT_NAME    = STARLINK-35672
OBJECT_ID      = 2025-257Q
CENTER_NAME    = EARTH
REF_FRAME      = TEME
TIME_SYSTEM    = UTC
MEAN_ELEMENT_THEORY = SGP/SGP4

EPOCH          = 2025-12-03T09:50:17.398176
MEAN_MOTION    = 15.49340310
ECCENTRICITY   = .0001939
INCLINATION    = 53.1588
RA_OF_ASC_NODE = 308.4152
ARG_OF_PERICENTER = 89.2215
MEAN_ANOMALY   = 270.9016

EPHEMERIS_TYPE = 0
CLASSIFICATION_TYPE = U
NORAD_CAT_ID   = 66394
ELEMENT_SET_NO = 999
REV_AT_EPOCH   = 493
BSTAR          = .16114E-2
MEAN_MOTION_DOT = .90316E-3
MEAN_MOTION_DDOT = 0

CCSDS_OMM_VERS = 2.0
CREATION_DATE  = 
ORIGINATOR     = 

OBJECT_NAME    = STARLINK-35681
OBJECT_ID      = 2025-257R
CENTER_NAME    = EARTH
REF_FRAME      = TEME
TIME_SYSTEM    = UTC
MEAN_ELEMENT_THEORY = SGP/SGP4

EPOCH          = 2025-12-03T09:49:47.662752
MEAN_MOTION    = 15.49325467
ECCENTRICITY   = .0001507
INCLINATION    = 53.1590
RA_OF_ASC_NODE = 308.4132
ARG_OF_PERICENTER = 97.3253
MEAN_ANOMALY   = 262.7928

EPHEMERIS_TYPE = 0
CLASSIFICATION_TYPE = U
NORAD_CAT_ID   = 66395
ELEMENT_SET_NO = 999
REV_AT_EPOCH   = 486
BSTAR          = .99187E-3
MEAN_MOTION_DOT = .55138E-3
MEAN_MOTION_DDOT = 0

CCSDS_OMM_VERS = 2.0
CREATION_DATE  = 
ORIGINATOR     = 

OBJECT_NAME    = STARLINK-35669
OBJECT_ID      = 2025-257S
CENTER_NAME    = EARTH
REF_FRAME      = TEME
TIME_SYSTEM    = UTC
MEAN_ELEMENT_THEORY = SGP/SGP4

EPOCH          = 2025-12-03T09:49:17.918688
MEAN_MOTION    = 15.49325911
ECCENTRICITY   = .0001407
INCLINATION    = 53.1588
RA_OF_ASC_NODE = 308.4101
ARG_OF_PERICENTER = 102.3886
MEAN_ANOMALY   = 257.7281

EPHEMERIS_TYPE = 0
CLASSIFICATION_TYPE = U
NORAD_CAT_ID   = 66396
ELEMENT_SET_NO = 999
REV_AT_EPOCH   = 493
BSTAR          = .9271E-3
MEAN_MOTION_DOT = .51484E-3
MEAN_MOTION_DDOT = 0

CCSDS_OMM_VERS = 2.0
CREATION_DATE  = 
ORIGINATOR     = 

OBJECT_NAME    = STARLINK-35510
OBJECT_ID      = 2025-257T
CENTER_NAME    = EARTH
REF_FRAME      = TEME
TIME_SYSTEM    = UTC
MEAN_ELEMENT_THEORY = SGP/SGP4

EPOCH          = 2025-12-03T09:48:48.187584
MEAN_MOTION    = 15.49340230
ECCENTRICITY   = .0001381
INCLINATION    = 53.1588
RA_OF_ASC_NODE = 308.4085
ARG_OF_PERICENTER = 92.3379
MEAN_ANOMALY   = 267.7789

EPHEMERIS_TYPE = 0
CLASSIFICATION_TYPE = U
NORAD_CAT_ID   = 66397
ELEMENT_SET_NO = 999
REV_AT_EPOCH   = 493
BSTAR          = .13191E-2
MEAN_MOTION_DOT = .7369E-3
MEAN_MOTION_DDOT = 0

CCSDS_OMM_VERS = 2.0
CREATION_DATE  = 
ORIGINATOR     = 

OBJECT_NAME    = STARLINK-35642
OBJECT_ID      = 2025-257U
CENTER_NAME    = EARTH
REF_FRAME      = TEME
TIME_SYSTEM    = UTC
MEAN_ELEMENT_THEORY = SGP/SGP4

EPOCH          = 2025-12-03T09:48:18.698400
MEAN_MOTION    = 15.49340819
ECCENTRICITY   = .0001523
INCLINATION    = 53.1589
RA_OF_ASC_NODE = 308.4057
ARG_OF_PERICENTER = 89.0323
MEAN_ANOMALY   = 271.0861

EPHEMERIS_TYPE = 0
CLASSIFICATION_TYPE = U
NORAD_CAT_ID   = 66398
ELEMENT_SET_NO = 999
REV_AT_EPOCH   = 493
BSTAR          = .17056E-2
MEAN_MOTION_DOT = .95686E-3
MEAN_MOTION_DDOT = 0

