STARLINK-35661          
1 66387U 25257H   25337.50003471 -.01696499  00000+0 -43116-1 0  9992
2 66387  53.1595 308.0405 0000648  72.0651  43.9259 15.42583289  5014
STARLINK-35647          
1 66388U 25257J   25337.50003471 -.02041329  00000+0 -47006-1 0  9992
2 66388  53.1595 308.0130 0001277  72.1402  57.5407 15.45540877  5019
STARLINK-35694          
1 66389U 25257K   25337.41094860  .00018953  00000+0  34878-3 0  9993
2 66389  53.1590 308.4226 0001836 114.7525 245.3675 15.49244836  4939
STARLINK-35665          
1 66390U 25257L   25337.40476902  .00087051  00000+0  15540-2 0  9994
2 66390  53.1588 308.3801 0001361  95.3157 264.8007 15.49342524  5034
STARLINK-35656          
1 66391U 25257M   25337.50003471  .00030497  00000+0  77030-3 0  9998
2 66391  53.1593 307.9196 0001522  65.7595 103.6952 15.39582074  5112
STARLINK-35671          
1 66392U 25257N   25337.50003471 -.02051228  00000+0 -48093-1 0  9993
2 66392  53.1593 308.0034 0001329  82.2543  51.5514 15.45035717  5016
STARLINK-35652          
1 66393U 25257P   25337.34610169  .00062649  00000+0  11247-2 0  9991
2 66393  53.1589 308.7286 0001485 104.9265 255.1908 15.49329559  4926
STARLINK-35672          
1 66394U 25257Q   25337.40992359  .00090316  00000+0  16114-2 0  9993
2 66394  53.1588 308.4152 0001939  89.2215 270.9016 15.49340310  4933
STARLINK-35681          
1 66395U 25257R   25337.40957943  .00055138  00000+0  99187-3 0  9999
2 66395  53.1590 308.4132 0001507  97.3253 262.7928 15.49325467  4867
STARLINK-35669          
1 66396U 25257S   25337.40923517  .00051484  00000+0  92710-3 0  9995
2 66396  53.1588 308.4101 0001407 102.3886 257.7281 15.49325911  4937
STARLINK-35510          
1 66397U 25257T   25337.40889106  .00073690  00000+0  13191-2 0  9999
2 66397  53.1588 308.4085 0001381  92.3379 267.7789 15.49340230  4930
STARLINK-35642          
1 66398U 25257U   25337.40854975  .00095686  00000+0  17056-2 0  9999
2 66398  53.1589 308.4057 0001523  89.0323 271.0861 15.49340819  4933
